[{"OBJECT_NAME":"SAUDISAT 5B","OBJECT_ID":"2018-102C","EPOCH":"2026-03-09T22:59:17.457216","MEAN_MOTION":15.27248504,"ECCENTRICITY":0.00120577,"INCLINATION":97.3281,"RA_OF_ASC_NODE":135.3629,"ARG_OF_PERICENTER":124.0958,"MEAN_ANOMALY":236.1427,"EPHEMERIS_TYPE":0,"CLASSIFICATION_TYPE":"U","NORAD_CAT_ID":43833,"ELEMENT_SET_NO":999,"REV_AT_EPOCH":40064,"BSTAR":0.00024926623,"MEAN_MOTION_DOT":6.596e-5,"MEAN_MOTION_DDOT":0},{"OBJECT_NAME":"STARLINK-35922","OBJECT_ID":"2025-263T","EPOCH":"2026-03-09T05:16:26.739552","MEAN_MOTION":15.275785,"ECCENTRICITY":0.00033204,"INCLINATION":43.0093,"RA_OF_ASC_NODE":353.639,"ARG_OF_PERICENTER":259.7702,"MEAN_ANOMALY":100.2776,"EPHEMERIS_TYPE":0,"CLASSIFICATION_TYPE":"U","NORAD_CAT_ID":66502,"ELEMENT_SET_NO":999,"REV_AT_EPOCH":1882,"BSTAR":0.00087173129,"MEAN_MOTION_DOT":0.00023804,"MEAN_MOTION_DDOT":0}]
